GLOBALSTAR M075 [+]     
1 37192U 10054E   23334.67049677 -.00000097  00000+0  40465-4 0  9992
2 37192  51.9938 100.3667 0000953 110.6156 351.9921 12.62267901605084
GLOBALSTAR M073 [+]     
1 37193U 10054F   23333.94820692 -.00000068  00000+0  19904-3 0  9997
2 37193  52.0087  15.9534 0000383 122.8391 297.8814 12.62269870606503
GLOBALSTAR M083 [+]     
1 37739U 11033A   23334.03573537 -.00000096  00000+0  44137-4 0  9993
2 37739  51.9879 325.1909 0000599  62.7085 336.7686 12.62263235575840
GLOBALSTAR M088 [+]     
1 37740U 11033B   23333.16594014 -.00000057  00000+0  26037-3 0  9996
2 37740  51.9730 233.8073 0001174  71.8632  92.9777 12.62268016570911
GLOBALSTAR M091 [+]     
1 37741U 11033C   23334.82378132 -.00000077  00000+0  15139-3 0  9995
2 37741  51.9980 191.3039 0001383  83.6274 357.5857 12.62269267572172
GLOBALSTAR M085 [+]     
1 37742U 11033D   23334.81644642 -.00000103  00000+0  19244-5 0  9990
2 37742  51.9840 142.8624 0001315  94.9625  13.2085 12.62265692572918
GLOBALSTAR M081 [+]     
1 37743U 11033E   23333.81244346 -.00000101  00000+0  16158-4 0  9995
2 37743  51.9930 148.3583 0001382 101.4831   2.1877 12.62267498572823
GLOBALSTAR M089 [+]     
1 37744U 11033F   23334.55971493 -.00000110  00000+0 -35135-4 0  9995
2 37744  51.9917 100.4140 0000814 132.6116 308.6527 12.62269831573637
